CTC1_L_00128001-01
1 10000U 22898SQ  26075.70031250  .00000000  00000+0  00000-0 0  9997
2 10000  85.0000   0.0000 0000000   0.0000   0.0000 14.24551792    17
CTC1_L_00128001-02
1 10001U 25651OV  26075.70031250  .00000000  00000+0  00000-0 0  9998
2 10001  85.0000   0.0000 0000000   0.0000  90.0000 14.24551792    17
CTC1_L_00128001-03
1 10002U 23620XZ  26075.70031250  .00000000  00000+0  00000-0 0  9993
2 10002  85.0000   0.0000 0000000   0.0000 180.0000 14.24551792    18
CTC1_L_00128001-04
1 10003U 24002TO  26075.70031250  .00000000  00000+0  00000-0 0  9999
2 10003  85.0000   0.0000 0000000   0.0000 270.0000 14.24551792    19
CTC1_L_00128002-01
1 10004U 23756IW  26075.70031250  .00000000  00000+0  00000-0 0  9995
2 10004  85.0000  12.0000 0000000   0.0000  12.0000 14.24551792    17
CTC1_L_00128002-02
1 10005U 24614RL  26075.70031250  .00000000  00000+0  00000-0 0  9990
2 10005  85.0000  12.0000 0000000   0.0000 102.0000 14.24551792    18
CTC1_L_00128002-03
1 10006U 23694VK  26075.70031250  .00000000  00000+0  00000-0 0  9998
2 10006  85.0000  12.0000 0000000   0.0000 192.0000 14.24551792    18
CTC1_L_00128002-04
1 10007U 22514GC  26075.70031250  .00000000  00000+0  00000-0 0  9999
2 10007  85.0000  12.0000 0000000   0.0000 282.0000 14.24551792    19
CTC1_L_00128003-01
1 10008U 24561BC  26075.70031250  .00000000  00000+0  00000-0 0  9994
2 10008  85.0000  24.0000 0000000   0.0000  24.0000 14.24551792    17
CTC1_L_00128003-02
1 10009U 22700YY  26075.70031250  .00000000  00000+0  00000-0 0  9998
2 10009  85.0000  24.0000 0000000   0.0000 114.0000 14.24551792    18
CTC1_L_00128003-03
1 10010U 26335XZ  26075.70031250  .00000000  00000+0  00000-0 0  9998
2 10010  85.0000  24.0000 0000000   0.0000 204.0000 14.24551792    10
CTC1_L_00128003-04
1 10011U 22485OC  26075.70031250  .00000000  00000+0  00000-0 0  9991
2 10011  85.0000  24.0000 0000000   0.0000 294.0000 14.24551792    10
CTC1_L_00128004-01
1 10012U 25265SM  26075.70031250  .00000000  00000+0  00000-0 0  9991
2 10012  85.0000  36.0000 0000000   0.0000  36.0000 14.24551792    18
CTC1_L_00128004-02
1 10013U 24094QP  26075.70031250  .00000000  00000+0  00000-0 0  9991
2 10013  85.0000  36.0000 0000000   0.0000 126.0000 14.24551792    19
CTC1_L_00128004-03
1 10014U 24445JL  26075.70031250  .00000000  00000+0  00000-0 0  9992
2 10014  85.0000  36.0000 0000000   0.0000 216.0000 14.24551792    10
CTC1_L_00128004-04
1 10015U 23797YQ  26075.70031250  .00000000  00000+0  00000-0 0  9992
2 10015  85.0000  36.0000 0000000   0.0000 306.0000 14.24551792    11
CTC1_L_00128005-01
1 10016U 26264QS  26075.70031250  .00000000  00000+0  00000-0 0  9995
2 10016  85.0000  48.0000 0000000   0.0000  48.0000 14.24551792    18
CTC1_L_00128005-02
1 10017U 23305SV  26075.70031250  .00000000  00000+0  00000-0 0  9999
2 10017  85.0000  48.0000 0000000   0.0000 138.0000 14.24551792    19
CTC1_L_00128005-03
1 10018U 22597RL  26075.70031250  .00000000  00000+0  00000-0 0  9992
2 10018  85.0000  48.0000 0000000   0.0000 228.0000 14.24551792    10
CTC1_L_00128005-04
1 10019U 22596ZB  26075.70031250  .00000000  00000+0  00000-0 0  9992
2 10019  85.0000  48.0000 0000000   0.0000 318.0000 14.24551792    11
CTC1_L_00128006-01
1 10020U 24547LO  26075.70031250  .00000000  00000+0  00000-0 0  9992
2 10020  85.0000  60.0000 0000000   0.0000  60.0000 14.24551792    11
CTC1_L_00128006-02
1 10021U 22479HJ  26075.70031250  .00000000  00000+0  00000-0 0  9995
2 10021  85.0000  60.0000 0000000   0.0000 150.0000 14.24551792    12
CTC1_L_00128006-03
1 10022U 24770HQ  26075.70031250  .00000000  00000+0  00000-0 0  9992
2 10022  85.0000  60.0000 0000000   0.0000 240.0000 14.24551792    13
CTC1_L_00128006-04
1 10023U 22124FY  26075.70031250  .00000000  00000+0  00000-0 0  9994
2 10023  85.0000  60.0000 0000000   0.0000 330.0000 14.24551792    14
CTC1_L_00128007-01
1 10024U 23560MQ  26075.70031250  .00000000  00000+0  00000-0 0  9990
2 10024  85.0000  72.0000 0000000   0.0000  72.0000 14.24551792    11
CTC1_L_00128007-02
1 10025U 26295DO  26075.70031250  .00000000  00000+0  00000-0 0  9999
2 10025  85.0000  72.0000 0000000   0.0000 162.0000 14.24551792    12
CTC1_L_00128007-03
1 10026U 22786PB  26075.70031250  .00000000  00000+0  00000-0 0  9991
2 10026  85.0000  72.0000 0000000   0.0000 252.0000 14.24551792    13
CTC1_L_00128007-04
1 10027U 24668AP  26075.70031250  .00000000  00000+0  00000-0 0  9993
2 10027  85.0000  72.0000 0000000   0.0000 342.0000 14.24551792    14
CTC1_L_00128008-01
1 10028U 22315YF  26075.70031250  .00000000  00000+0  00000-0 0  9991
2 10028  85.0000  84.0000 0000000   0.0000  84.0000 14.24551792    11
CTC1_L_00128008-02
1 10029U 22599FS  26075.70031250  .00000000  00000+0  00000-0 0  9996
2 10029  85.0000  84.0000 0000000   0.0000 174.0000 14.24551792    12
CTC1_L_00128008-03
1 10030U 25901CJ  26075.70031250  .00000000  00000+0  00000-0 0  9998
2 10030  85.0000  84.0000 0000000   0.0000 264.0000 14.24551792    14
CTC1_L_00128008-04
1 10031U 24100S   26075.70031250  .00000000  00000+0  00000-0 0  9999
2 10031  85.0000  84.0000 0000000   0.0000 354.0000 14.24551792    15
CTC1_L_00128009-01
1 10032U 26436YP  26075.70031250  .00000000  00000+0  00000-0 0  9994
2 10032  85.0000  96.0000 0000000   0.0000  96.0000 14.24551792    12
CTC1_L_00128009-02
1 10033U 25227TI  26075.70031250  .00000000  00000+0  00000-0 0  9992
2 10033  85.0000  96.0000 0000000   0.0000 186.0000 14.24551792    13
CTC1_L_00128009-03
1 10034U 25335BZ  26075.70031250  .00000000  00000+0  00000-0 0  9993
2 10034  85.0000  96.0000 0000000   0.0000 276.0000 14.24551792    14
CTC1_L_00128009-04
1 10035U 25726JM  26075.70031250  .00000000  00000+0  00000-0 0  9998
2 10035  85.0000  96.0000 0000000   0.0000   6.0000 14.24551792    16
CTC1_L_00128010-01
1 10036U 26108IU  26075.70031250  .00000000  00000+0  00000-0 0  9994
2 10036  85.0000 108.0000 0000000   0.0000 108.0000 14.24551792    14
CTC1_L_00128010-02
1 10037U 22995WL  26075.70031250  .00000000  00000+0  00000-0 0  9995
2 10037  85.0000 108.0000 0000000   0.0000 198.0000 14.24551792    14
CTC1_L_00128010-03
1 10038U 22222XL  26075.70031250  .00000000  00000+0  00000-0 0  9999
2 10038  85.0000 108.0000 0000000   0.0000 288.0000 14.24551792    15
CTC1_L_00128010-04
1 10039U 24515GS  26075.70031250  .00000000  00000+0  00000-0 0  9997
2 10039  85.0000 108.0000 0000000   0.0000  18.0000 14.24551792    17
CTC1_L_00128011-01
1 10040U 22204EL  26075.70031250  .00000000  00000+0  00000-0 0  9992
2 10040  85.0000 120.0000 0000000   0.0000 120.0000 14.24551792    17
CTC1_L_00128011-02
1 10041U 24194PL  26075.70031250  .00000000  00000+0  00000-0 0  9993
2 10041  85.0000 120.0000 0000000   0.0000 210.0000 14.24551792    18
CTC1_L_00128011-03
1 10042U 25071CF  26075.70031250  .00000000  00000+0  00000-0 0  9999
2 10042  85.0000 120.0000 0000000   0.0000 300.0000 14.24551792    19
CTC1_L_00128011-04
1 10043U 26661GZ  26075.70031250  .00000000  00000+0  00000-0 0  9996
2 10043  85.0000 120.0000 0000000   0.0000  30.0000 14.24551792    10
CTC1_L_00128012-01
1 10044U 25078W   26075.70031250  .00000000  00000+0  00000-0 0  9998
2 10044  85.0000 132.0000 0000000   0.0000 132.0000 14.24551792    17
CTC1_L_00128012-02
1 10045U 24613MH  26075.70031250  .00000000  00000+0  00000-0 0  9993
2 10045  85.0000 132.0000 0000000   0.0000 222.0000 14.24551792    18
CTC1_L_00128012-03
1 10046U 22671RB  26075.70031250  .00000000  00000+0  00000-0 0  9996
2 10046  85.0000 132.0000 0000000   0.0000 312.0000 14.24551792    19
CTC1_L_00128012-04
1 10047U 23642FD  26075.70031250  .00000000  00000+0  00000-0 0  9996
2 10047  85.0000 132.0000 0000000   0.0000  42.0000 14.24551792    10
CTC1_L_00128013-01
1 10048U 25530FZ  26075.70031250  .00000000  00000+0  00000-0 0  9995
2 10048  85.0000 144.0000 0000000   0.0000 144.0000 14.24551792    17
CTC1_L_00128013-02
1 10049U 22681UM  26075.70031250  .00000000  00000+0  00000-0 0  9990
2 10049  85.0000 144.0000 0000000   0.0000 234.0000 14.24551792    18
CTC1_L_00128013-03
1 10050U 25183BY  26075.70031250  .00000000  00000+0  00000-0 0  9992
2 10050  85.0000 144.0000 0000000   0.0000 324.0000 14.24551792    10
CTC1_L_00128013-04
1 10051U 25022ZW  26075.70031250  .00000000  00000+0  00000-0 0  9995
2 10051  85.0000 144.0000 0000000   0.0000  54.0000 14.24551792    11
CTC1_L_00128014-01
1 10052U 24482DX  26075.70031250  .00000000  00000+0  00000-0 0  9995
2 10052  85.0000 156.0000 0000000   0.0000 156.0000 14.24551792    18
CTC1_L_00128014-02
1 10053U 22700WU  26075.70031250  .00000000  00000+0  00000-0 0  9997
2 10053  85.0000 156.0000 0000000   0.0000 246.0000 14.24551792    19
CTC1_L_00128014-03
1 10054U 25317VY  26075.70031250  .00000000  00000+0  00000-0 0  9995
2 10054  85.0000 156.0000 0000000   0.0000 336.0000 14.24551792    10
CTC1_L_00128014-04
1 10055U 26516GV  26075.70031250  .00000000  00000+0  00000-0 0  9998
2 10055  85.0000 156.0000 0000000   0.0000  66.0000 14.24551792    11
CTC1_L_00128015-01
1 10056U 25658IH  26075.70031250  .00000000  00000+0  00000-0 0  9995
2 10056  85.0000 168.0000 0000000   0.0000 168.0000 14.24551792    18
CTC1_L_00128015-02
1 10057U 22869ZF  26075.70031250  .00000000  00000+0  00000-0 0  9997
2 10057  85.0000 168.0000 0000000   0.0000 258.0000 14.24551792    19
CTC1_L_00128015-03
1 10058U 25532RM  26075.70031250  .00000000  00000+0  00000-0 0  9998
2 10058  85.0000 168.0000 0000000   0.0000 348.0000 14.24551792    10
CTC1_L_00128015-04
1 10059U 25282WY  26075.70031250  .00000000  00000+0  00000-0 0  9991
2 10059  85.0000 168.0000 0000000   0.0000  78.0000 14.24551792    11
CTC1_L_00128016-01
1 10060U 25416QG  26075.70031250  .00000000  00000+0  00000-0 0  9992
2 10060  85.0000 180.0000 0000000   0.0000 180.0000 14.24551792    11
CTC1_L_00128016-02
1 10061U 26367MH  26075.70031250  .00000000  00000+0  00000-0 0  9999
2 10061  85.0000 180.0000 0000000   0.0000 270.0000 14.24551792    12
